{
  "type": "FeatureCollection",
  "features": [
    {
      "type": "Feature",
      "properties": {
        "norad_id": 38144,
        "name": "FENGYUN 1C DEB",
        "group": "fengyun-1c-debris",
        "lat": 37.66682181650342,
        "lon": 7.4810167659438065,
        "alt_km": 838.2392111870267,
        "timestamp": "2025-12-22T20:43:46.138261+00:00",
        "meta_object_name": "FENGYUN 1C DEB",
        "meta_object_id": "1999-025EQR",
        "meta_epoch": "2025-12-12T07:21:41.538528",
        "meta_mean_motion": 13.59024242,
        "meta_eccentricity": 0.02903277,
        "meta_inclination": 98.9688,
        "meta_ra_of_asc_node": 170.8072,
        "meta_arg_of_pericenter": 192.7812,
        "meta_mean_anomaly": 166.5857,
        "meta_ephemeris_type": 0,
        "meta_classification_type": "U",
        "meta_norad_cat_id": 38144,
        "meta_element_set_no": 999,
        "meta_rev_at_epoch": 61031,
        "meta_bstar": 0.0024533733,
        "meta_mean_motion_dot": 2.337e-05,
        "meta_mean_motion_ddot": 0,
        "tle_line1": "1 38144U 99025EQR 25346.30673077  .00002337  00000+0  24534-2 0  9992",
        "tle_line2": "2 38144  98.9688 170.8072 0290327 192.7812 166.5857 13.59024242610319"
      },
      "geometry": {
        "type": "Point",
        "coordinates": [
          7.4810167659438065,
          37.66682181650342
        ]
      }
    },
    {
      "type": "Feature",
      "properties": {
        "norad_id": 38146,
        "name": "FENGYUN 1C DEB",
        "group": "fengyun-1c-debris",
        "lat": 60.9099523808271,
        "lon": -83.70050790871342,
        "alt_km": 586.6735516543586,
        "timestamp": "2025-12-22T20:43:46.138271+00:00",
        "meta_object_name": "FENGYUN 1C DEB",
        "meta_object_id": "1999-025EQT",
        "meta_epoch": "2025-12-18T00:08:51.919008",
        "meta_mean_motion": 14.59286747,
        "meta_eccentricity": 0.02022294,
        "meta_inclination": 99.4834,
        "meta_ra_of_asc_node": 73.268,
        "meta_arg_of_pericenter": 87.2264,
        "meta_mean_anomaly": 84.0387,
        "meta_ephemeris_type": 0,
        "meta_classification_type": "U",
        "meta_norad_cat_id": 38146,
        "meta_element_set_no": 999,
        "meta_rev_at_epoch": 31956,
        "meta_bstar": 0.00063226228,
        "meta_mean_motion_dot": 3.907e-05,
        "meta_mean_motion_ddot": 0,
        "tle_line1": "1 38146U 99025EQT 25352.00615647  .00003907  00000+0  63226-3 0  9993",
        "tle_line2": "2 38146  99.4834  73.2680 0202229  87.2264  84.0387 14.59286747319560"
      },
      "geometry": {
        "type": "Point",
        "coordinates": [
          -83.70050790871342,
          60.9099523808271
        ]
      }
    },
    {
      "type": "Feature",
      "properties": {
        "norad_id": 38147,
        "name": "FENGYUN 1C DEB",
        "group": "fengyun-1c-debris",
        "lat": 56.70418333694386,
        "lon": -2.4435308753706093,
        "alt_km": 838.2366373611494,
        "timestamp": "2025-12-22T20:43:46.138281+00:00",
        "meta_object_name": "FENGYUN 1C DEB",
        "meta_object_id": "1999-025EQU",
        "meta_epoch": "2025-12-21T07:20:40.413120",
        "meta_mean_motion": 14.23465696,
        "meta_eccentricity": 0.0049661,
        "meta_inclination": 98.5577,
        "meta_ra_of_asc_node": 9.2955,
        "meta_arg_of_pericenter": 274.8439,
        "meta_mean_anomaly": 84.7071,
        "meta_ephemeris_type": 0,
        "meta_classification_type": "U",
        "meta_norad_cat_id": 38147,
        "meta_element_set_no": 999,
        "meta_rev_at_epoch": 60509,
        "meta_bstar": 0.00046715,
        "meta_mean_motion_dot": 1.032e-05,
        "meta_mean_motion_ddot": 0,
        "tle_line1": "1 38147U 99025EQU 25355.30602330  .00001032  00000+0  46715-3 0  9996",
        "tle_line2": "2 38147  98.5577   9.2955 0049661 274.8439  84.7071 14.23465696605092"
      },
      "geometry": {
        "type": "Point",
        "coordinates": [
          -2.4435308753706093,
          56.70418333694386
        ]
      }
    },
    {
      "type": "Feature",
      "properties": {
        "norad_id": 38149,
        "name": "FENGYUN 1C DEB",
        "group": "fengyun-1c-debris",
        "lat": -69.19526866816294,
        "lon": 11.395711719638932,
        "alt_km": 864.6320284547828,
        "timestamp": "2025-12-22T20:43:46.138290+00:00",
        "meta_object_name": "FENGYUN 1C DEB",
        "meta_object_id": "1999-025EQW",
        "meta_epoch": "2025-12-22T05:54:33.856416",
        "meta_mean_motion": 14.2592779,
        "meta_eccentricity": 0.00784572,
        "meta_inclination": 98.3581,
        "meta_ra_of_asc_node": 348.0436,
        "meta_arg_of_pericenter": 133.5047,
        "meta_mean_anomaly": 227.2691,
        "meta_ephemeris_type": 0,
        "meta_classification_type": "U",
        "meta_norad_cat_id": 38149,
        "meta_element_set_no": 999,
        "meta_rev_at_epoch": 70623,
        "meta_bstar": 0.00018485547,
        "meta_mean_motion_dot": 4.14e-06,
        "meta_mean_motion_ddot": 0,
        "tle_line1": "1 38149U 99025EQW 25356.24622519  .00000414  00000+0  18486-3 0  9990",
        "tle_line2": "2 38149  98.3581 348.0436 0078457 133.5047 227.2691 14.25927790706236"
      },
      "geometry": {
        "type": "Point",
        "coordinates": [
          11.395711719638932,
          -69.19526866816294
        ]
      }
    },
    {
      "type": "Feature",
      "properties": {
        "norad_id": 38155,
        "name": "FENGYUN 1C DEB",
        "group": "fengyun-1c-debris",
        "lat": -17.794902640093653,
        "lon": 78.09773440249435,
        "alt_km": 825.1536126731216,
        "timestamp": "2025-12-22T20:43:46.138306+00:00",
        "meta_object_name": "FENGYUN 1C DEB",
        "meta_object_id": "1999-025ERC",
        "meta_epoch": "2025-12-18T23:08:16.383264",
        "meta_mean_motion": 14.25112386,
        "meta_eccentricity": 0.00979258,
        "meta_inclination": 98.4473,
        "meta_ra_of_asc_node": 257.0769,
        "meta_arg_of_pericenter": 108.7402,
        "meta_mean_anomaly": 252.4435,
        "meta_ephemeris_type": 0,
        "meta_classification_type": "U",
        "meta_norad_cat_id": 38155,
        "meta_element_set_no": 999,
        "meta_rev_at_epoch": 63864,
        "meta_bstar": 0.0016814228,
        "meta_mean_motion_dot": 4.107e-05,
        "meta_mean_motion_ddot": 0,
        "tle_line1": "1 38155U 99025ERC 25352.96407851  .00004107  00000+0  16814-2 0  9997",
        "tle_line2": "2 38155  98.4473 257.0769 0097925 108.7402 252.4435 14.25112386638644"
      },
      "geometry": {
        "type": "Point",
        "coordinates": [
          78.09773440249435,
          -17.794902640093653
        ]
      }
    },
    {
      "type": "Feature",
      "properties": {
        "norad_id": 38157,
        "name": "FENGYUN 1C DEB",
        "group": "fengyun-1c-debris",
        "lat": 49.75648620991317,
        "lon": 96.39050847589655,
        "alt_km": 668.3383673751359,
        "timestamp": "2025-12-22T20:43:46.138319+00:00",
        "meta_object_name": "FENGYUN 1C DEB",
        "meta_object_id": "1999-025ERE",
        "meta_epoch": "2025-12-22T04:56:52.679328",
        "meta_mean_motion": 14.21771497,
        "meta_eccentricity": 0.02743434,
        "meta_inclination": 99.6568,
        "meta_ra_of_asc_node": 264.065,
        "meta_arg_of_pericenter": 87.817,
        "meta_mean_anomaly": 275.4389,
        "meta_ephemeris_type": 0,
        "meta_classification_type": "U",
        "meta_norad_cat_id": 38157,
        "meta_element_set_no": 999,
        "meta_rev_at_epoch": 76382,
        "meta_bstar": 0.00067847723,
        "meta_mean_motion_dot": 2.134e-05,
        "meta_mean_motion_ddot": 0,
        "tle_line1": "1 38157U 99025ERE 25356.20616527  .00002134  00000+0  67848-3 0  9994",
        "tle_line2": "2 38157  99.6568 264.0650 0274343  87.8170 275.4389 14.21771497763823"
      },
      "geometry": {
        "type": "Point",
        "coordinates": [
          96.39050847589655,
          49.75648620991317
        ]
      }
    },
    {
      "type": "Feature",
      "properties": {
        "norad_id": 38159,
        "name": "FENGYUN 1C DEB",
        "group": "fengyun-1c-debris",
        "lat": -67.51615058272058,
        "lon": 45.393472353990134,
        "alt_km": 870.2768521844191,
        "timestamp": "2025-12-22T20:43:46.138330+00:00",
        "meta_object_name": "FENGYUN 1C DEB",
        "meta_object_id": "1999-025ERG",
        "meta_epoch": "2025-12-04T22:05:20.152032",
        "meta_mean_motion": 14.03448484,
        "meta_eccentricity": 0.005704,
        "meta_inclination": 99.3156,
        "meta_ra_of_asc_node": 230.39,
        "meta_arg_of_pericenter": 2.347,
        "meta_mean_anomaly": 357.7952,
        "meta_ephemeris_type": 0,
        "meta_classification_type": "U",
        "meta_norad_cat_id": 38159,
        "meta_element_set_no": 999,
        "meta_rev_at_epoch": 83002,
        "meta_bstar": 0.0010527,
        "meta_mean_motion_dot": 1.625e-05,
        "meta_mean_motion_ddot": 0,
        "tle_line1": "1 38159U 99025ERG 25338.92037213  .00001625  00000+0  10527-2 0  9999",
        "tle_line2": "2 38159  99.3156 230.3900 0057040   2.3470 357.7952 14.03448484830021"
      },
      "geometry": {
        "type": "Point",
        "coordinates": [
          45.393472353990134,
          -67.51615058272058
        ]
      }
    }
  ]
}